COSMOS 2251 DEB         
1 34011U 93036GW  26115.15271304  .00001929  00000+0  58459-3 0  9992
2 34011  74.0124  82.4192 0037106 140.1677 220.2214 14.42526304898399
COSMOS 2251 DEB         
1 34014U 93036GZ  26115.82288341  .00005471  00000+0  81127-3 0  9992
2 34014  74.0182  18.7695 0038307 128.3959 295.4828 14.74823365912799
COSMOS 2251 DEB         
1 34015U 93036HA  26115.86917698  .00004168  00000+0  84811-3 0  9996
2 34015  74.0228 262.9609 0019838 327.0949 185.9692 14.61259403904890
COSMOS 2251 DEB         
1 34019U 93036HE  26115.41268233  .00000860  00000+0  30767-3 0  9991
2 34019  73.9520 164.7855 0062467 313.7536  63.9371 14.34496947894375
COSMOS 2251 DEB         
1 34021U 93036HG  26115.38037350  .00001139  00000+0  29784-3 0  9991
2 34021  74.0357 238.7920 0020285 347.2606  69.2928 14.50409868905672
COSMOS 2251 DEB         
1 34022U 93036HH  26115.82585155  .00000523  00000+0  17681-3 0  9991
2 34022  74.0561  23.6857 0021270  58.4947   9.9678 14.39163349901244
COSMOS 2251 DEB         
1 34026U 93036HM  26115.40688890  .00001039  00000+0  86018-3 0  9992
2 34026  73.7641 114.9826 0348521 323.5734 156.2338 13.65565161853560
COSMOS 2251 DEB         
1 34028U 93036HP  26115.14558389  .00000462  00000+0  54388-3 0  9998
2 34028  73.8805 142.6813 0546946 258.0203 160.7533 13.20757320827696
COSMOS 2251 DEB         
1 34031U 93036HS  26115.60819236  .00003407  00000+0  69553-3 0  9996
2 34031  74.0121 239.6902 0022681 326.5372  49.0871 14.61157203905201
COSMOS 2251 DEB         
1 34036U 93036HX  26115.77417407  .00057566  00000+0  36067-2 0  9991
2 34036  74.0129 235.7500 0007774 265.5476  94.4827 15.09043104905828
COSMOS 2251 DEB         
1 34037U 93036HY  26115.52861595  .00000849  00000+0  30159-3 0  9995
2 34037  74.0498 165.4824 0053591 184.6638 175.4023 14.35098224896362
COSMOS 2251 DEB         
1 34040U 93036JB  26115.66116194  .00000435  00000+0  35365-3 0  9997
2 34040  73.9572 204.4592 0337892 131.8995 231.1475 13.68923298854326
