[{"OBJECT_NAME":"COSMOS 2251 DEB","OBJECT_ID":"1993-036GW","EPOCH":"2026-04-25T03:39:54.406656","MEAN_MOTION":14.42526304,"ECCENTRICITY":0.00371061,"INCLINATION":74.0124,"RA_OF_ASC_NODE":82.4192,"ARG_OF_PERICENTER":140.1677,"MEAN_ANOMALY":220.2214,"EPHEMERIS_TYPE":0,"CLASSIFICATION_TYPE":"U","NORAD_CAT_ID":34011,"ELEMENT_SET_NO":999,"REV_AT_EPOCH":89839,"BSTAR":0.00058458663,"MEAN_MOTION_DOT":1.929e-5,"MEAN_MOTION_DDOT":0},{"OBJECT_NAME":"COSMOS 2251 DEB","OBJECT_ID":"1993-036GZ","EPOCH":"2026-04-25T19:44:57.125760","MEAN_MOTION":14.74823365,"ECCENTRICITY":0.0038308,"INCLINATION":74.0182,"RA_OF_ASC_NODE":18.7695,"ARG_OF_PERICENTER":128.3959,"MEAN_ANOMALY":295.4828,"EPHEMERIS_TYPE":0,"CLASSIFICATION_TYPE":"U","NORAD_CAT_ID":34014,"ELEMENT_SET_NO":999,"REV_AT_EPOCH":91279,"BSTAR":0.00081127,"MEAN_MOTION_DOT":5.471e-5,"MEAN_MOTION_DDOT":0},{"OBJECT_NAME":"COSMOS 2251 DEB","OBJECT_ID":"1993-036HA","EPOCH":"2026-04-25T20:51:36.891072","MEAN_MOTION":14.61259403,"ECCENTRICITY":0.0019839,"INCLINATION":74.0228,"RA_OF_ASC_NODE":262.9609,"ARG_OF_PERICENTER":327.0949,"MEAN_ANOMALY":185.9692,"EPHEMERIS_TYPE":0,"CLASSIFICATION_TYPE":"U","NORAD_CAT_ID":34015,"ELEMENT_SET_NO":999,"REV_AT_EPOCH":90489,"BSTAR":0.00084811,"MEAN_MOTION_DOT":4.168e-5,"MEAN_MOTION_DDOT":0},{"OBJECT_NAME":"COSMOS 2251 DEB","OBJECT_ID":"1993-036HE","EPOCH":"2026-04-25T09:54:15.753312","MEAN_MOTION":14.34496947,"ECCENTRICITY":0.0062467,"INCLINATION":73.952,"RA_OF_ASC_NODE":164.7855,"ARG_OF_PERICENTER":313.7536,"MEAN_ANOMALY":63.9371,"EPHEMERIS_TYPE":0,"CLASSIFICATION_TYPE":"U","NORAD_CAT_ID":34019,"ELEMENT_SET_NO":999,"REV_AT_EPOCH":89437,"BSTAR":0.00030767,"MEAN_MOTION_DOT":8.6e-6,"MEAN_MOTION_DDOT":0},{"OBJECT_NAME":"COSMOS 2251 DEB","OBJECT_ID":"1993-036HG","EPOCH":"2026-04-25T09:07:44.270400","MEAN_MOTION":14.50409867,"ECCENTRICITY":0.0020285,"INCLINATION":74.0357,"RA_OF_ASC_NODE":238.792,"ARG_OF_PERICENTER":347.2606,"MEAN_ANOMALY":69.2928,"EPHEMERIS_TYPE":0,"CLASSIFICATION_TYPE":"U","NORAD_CAT_ID":34021,"ELEMENT_SET_NO":999,"REV_AT_EPOCH":90567,"BSTAR":0.00029784,"MEAN_MOTION_DOT":1.139e-5,"MEAN_MOTION_DDOT":0},{"OBJECT_NAME":"COSMOS 2251 DEB","OBJECT_ID":"1993-036HH","EPOCH":"2026-04-25T19:49:13.573056","MEAN_MOTION":14.39163349,"ECCENTRICITY":0.002127,"INCLINATION":74.0561,"RA_OF_ASC_NODE":23.6857,"ARG_OF_PERICENTER":58.4947,"MEAN_ANOMALY":9.9678,"EPHEMERIS_TYPE":0,"CLASSIFICATION_TYPE":"U","NORAD_CAT_ID":34022,"ELEMENT_SET_NO":999,"REV_AT_EPOCH":90124,"BSTAR":0.00017681,"MEAN_MOTION_DOT":5.23e-6,"MEAN_MOTION_DDOT":0},{"OBJECT_NAME":"COSMOS 2251 DEB","OBJECT_ID":"1993-036HM","EPOCH":"2026-04-25T09:45:55.200096","MEAN_MOTION":13.65565161,"ECCENTRICITY":0.0348521,"INCLINATION":73.7641,"RA_OF_ASC_NODE":114.9826,"ARG_OF_PERICENTER":323.5734,"MEAN_ANOMALY":156.2338,"EPHEMERIS_TYPE":0,"CLASSIFICATION_TYPE":"U","NORAD_CAT_ID":34026,"ELEMENT_SET_NO":999,"REV_AT_EPOCH":85356,"BSTAR":0.00086018,"MEAN_MOTION_DOT":1.039e-5,"MEAN_MOTION_DDOT":0},{"OBJECT_NAME":"COSMOS 2251 DEB","OBJECT_ID":"1993-036HP","EPOCH":"2026-04-25T03:29:38.448096","MEAN_MOTION":13.2075732,"ECCENTRICITY":0.0546946,"INCLINATION":73.8805,"RA_OF_ASC_NODE":142.6813,"ARG_OF_PERICENTER":258.0203,"MEAN_ANOMALY":160.7533,"EPHEMERIS_TYPE":0,"CLASSIFICATION_TYPE":"U","NORAD_CAT_ID":34028,"ELEMENT_SET_NO":999,"REV_AT_EPOCH":82769,"BSTAR":0.00054387674,"MEAN_MOTION_DOT":4.62e-6,"MEAN_MOTION_DDOT":0},{"OBJECT_NAME":"COSMOS 2251 DEB","OBJECT_ID":"1993-036HS","EPOCH":"2026-04-25T14:35:47.819040","MEAN_MOTION":14.61157203,"ECCENTRICITY":0.0022682,"INCLINATION":74.0121,"RA_OF_ASC_NODE":239.6902,"ARG_OF_PERICENTER":326.5372,"MEAN_ANOMALY":49.0871,"EPHEMERIS_TYPE":0,"CLASSIFICATION_TYPE":"U","NORAD_CAT_ID":34031,"ELEMENT_SET_NO":999,"REV_AT_EPOCH":90520,"BSTAR":0.00069553,"MEAN_MOTION_DOT":3.407e-5,"MEAN_MOTION_DDOT":0},{"OBJECT_NAME":"COSMOS 2251 DEB","OBJECT_ID":"1993-036HX","EPOCH":"2026-04-25T18:34:48.638784","MEAN_MOTION":15.09043104,"ECCENTRICITY":0.0007774,"INCLINATION":74.0129,"RA_OF_ASC_NODE":235.75,"ARG_OF_PERICENTER":265.5476,"MEAN_ANOMALY":94.4827,"EPHEMERIS_TYPE":0,"CLASSIFICATION_TYPE":"U","NORAD_CAT_ID":34036,"ELEMENT_SET_NO":999,"REV_AT_EPOCH":90582,"BSTAR":0.0036067,"MEAN_MOTION_DOT":0.00057566,"MEAN_MOTION_DDOT":0},{"OBJECT_NAME":"COSMOS 2251 DEB","OBJECT_ID":"1993-036HY","EPOCH":"2026-04-25T12:41:12.418080","MEAN_MOTION":14.35098224,"ECCENTRICITY":0.0053591,"INCLINATION":74.0498,"RA_OF_ASC_NODE":165.4824,"ARG_OF_PERICENTER":184.6638,"MEAN_ANOMALY":175.4023,"EPHEMERIS_TYPE":0,"CLASSIFICATION_TYPE":"U","NORAD_CAT_ID":34037,"ELEMENT_SET_NO":999,"REV_AT_EPOCH":89636,"BSTAR":0.00030159,"MEAN_MOTION_DOT":8.49e-6,"MEAN_MOTION_DDOT":0},{"OBJECT_NAME":"COSMOS 2251 DEB","OBJECT_ID":"1993-036JB","EPOCH":"2026-04-25T15:52:04.390752","MEAN_MOTION":13.68923298,"ECCENTRICITY":0.0337892,"INCLINATION":73.9572,"RA_OF_ASC_NODE":204.4592,"ARG_OF_PERICENTER":131.8995,"MEAN_ANOMALY":231.1475,"EPHEMERIS_TYPE":0,"CLASSIFICATION_TYPE":"U","NORAD_CAT_ID":34040,"ELEMENT_SET_NO":999,"REV_AT_EPOCH":85432,"BSTAR":0.00035365,"MEAN_MOTION_DOT":4.35e-6,"MEAN_MOTION_DDOT":0}]
